[{"OBJECT_NAME":"STARLINK-3401","OBJECT_ID":"2022-010K","EPOCH":"2026-03-09T22:53:36.128832","MEAN_MOTION":15.08838173,"ECCENTRICITY":0.00012382,"INCLINATION":53.2175,"RA_OF_ASC_NODE":277.937,"ARG_OF_PERICENTER":98.669,"MEAN_ANOMALY":261.4442,"EPHEMERIS_TYPE":0,"CLASSIFICATION_TYPE":"U","NORAD_CAT_ID":51465,"ELEMENT_SET_NO":999,"REV_AT_EPOCH":22736,"BSTAR":4.7994425e-5,"MEAN_MOTION_DOT":4.76e-6,"MEAN_MOTION_DDOT":0},{"OBJECT_NAME":"LEMUR-2-SIERRINI","OBJECT_ID":"2024-149DR","EPOCH":"2026-03-09T19:24:50.445216","MEAN_MOTION":15.08682764,"ECCENTRICITY":0.00065795,"INCLINATION":97.6873,"RA_OF_ASC_NODE":151.1225,"ARG_OF_PERICENTER":147.8458,"MEAN_ANOMALY":212.3173,"EPHEMERIS_TYPE":0,"CLASSIFICATION_TYPE":"U","NORAD_CAT_ID":60579,"ELEMENT_SET_NO":999,"REV_AT_EPOCH":8546,"BSTAR":0.00092040134,"MEAN_MOTION_DOT":0.00014386,"MEAN_MOTION_DDOT":0}]
